2025-313R               
1 67263U 25313R   26009.46130862  .00011611  00000+0  53918-3 0  9993
2 67263  97.4134  86.7279 0015141 195.7915 164.2850 15.20067443  1810
2025-313S               
1 67264U 25313S   26009.52749228  .00007440  00000+0  34776-3 0  9999
2 67264  97.4202  86.7853 0015109 200.8946 159.1674 15.19975490  1827
2025-313T               
1 67265U 25313T   26009.52688554  .00009475  00000+0  44033-3 0  9991
2 67265  97.4112  86.7894 0015088 196.3798 163.6951 15.20096238  1827
2025-313U               
1 67266U 25313U   26009.52686186  .00010552  00000+0  48988-3 0  9992
2 67266  97.4140  86.7930 0015026 195.0257 165.0534 15.20102386  1823
2025-313V               
1 67267U 25313V   26009.26333247  .00012889  00000+0  59692-3 0  9990
2 67267  97.4122  86.5235 0014214 201.8213 158.2418 15.20146317  1788
2025-313W               
1 67268U 25313W   26009.52695081  .00009295  00000+0  43235-3 0  9990
2 67268  97.4122  86.7801 0015180 195.9716 164.1043 15.20070113  1829
2025-313X               
1 67269U 25313X   26009.52651713  .00014207  00000+0  65617-3 0  9992
2 67269  97.4148  86.7942 0015029 194.2855 165.7958 15.20204762  1823
2025-313Y               
1 67270U 25313Y   26009.46126291  .00011191  00000+0  51971-3 0  9992
2 67270  97.4122  86.7255 0015112 196.3954 163.6795 15.20073565  1810
2025-313Z               
1 67271U 25313Z   26009.52733005  .00005255  00000+0  24670-3 0  9997
2 67271  97.4117  86.7809 0015110 192.0649 168.0226 15.19965707  1827
2025-313AA              
1 67272U 25313AA  26009.52616984  .00013698  00000+0  63213-3 0  9990
2 67272  97.4121  86.7807 0014878 196.4148 163.6608 15.20245743  1821
2025-313AB              
1 67273U 25313AB  26009.52716665  .00003832  00000+0  18085-3 0  9994
2 67273  97.4135  86.7830 0014009 200.9499 159.1164 15.19964122  1823
2025-313AC              
1 67274U 25313AC  26009.39494077  .00008724  00000+0  40577-3 0  9996
2 67274  97.4111  86.6591 0014804 196.0790 163.9978 15.20094935  1805
